NORAD_CAT_ID,OBJECT_NAME,OBJECT_TYPE,EPOCH,MEAN_MOTION,ECCENTRICITY,INCLINATION,RA_OF_ASC_NODE,ARG_OF_PERICENTER,MEAN_ANOMALY,BSTAR,MEAN_MOTION_DOT,MEAN_MOTION_DDOT,TLE_LINE0,TLE_LINE1,TLE_LINE2,SEMIMAJOR_AXIS,PERIOD,APOGEE,PERIGEE,DECAYED
50168.0,STARLINK-3296,PAYLOAD,2024-07-29 10:34:05,15.08840337,0.0001338,53.2169,9.9656,84.9017,275.2128,0.00037147,5.629e-05,0.0,0 STARLINK-3296,1 50168U 21125N   24211.44034649  .00005629  00000-0  37147-3 0  9992,2 50168  53.2169   9.9656 0001338  84.9017 275.2128 15.08840337147791,6917.879,95.438,540.67,538.819,0.0
50168.0,STARLINK-3296,PAYLOAD,2024-07-29 18:31:01,15.08842875,0.0001501,53.2176,8.4776,91.3067,268.8097,0.0003393,5.117e-05,0.0,0 STARLINK-3296,1 50168U 21125N   24211.77154526  .00005117  00000-0  33930-3 0  9993,2 50168  53.2176   8.4776 0001501  91.3067 268.8097 15.08842875147843,6917.872,95.437,540.775,538.698,0.0
50168.0,STARLINK-3296,PAYLOAD,2024-07-30 04:03:19,15.08851587,0.0001462,53.2172,6.6937,91.5374,268.5786,0.00032329,4.863e-05,0.0,0 STARLINK-3296,1 50168U 21125N   24212.16898002  .00004863  00000-0  32329-3 0  9999,2 50168  53.2172   6.6937 0001462  91.5374 268.5786 15.08851587144813,6917.845,95.437,540.721,538.699,0.0
50168.0,STARLINK-3296,PAYLOAD,2024-07-30 10:24:52,15.0884832,0.0001733,53.2179,5.5039,101.6704,258.4483,0.00028871,4.311e-05,0.0,0 STARLINK-3296,1 50168U 21125N   24212.43394187  .00004311  00000-0  28871-3 0  9999,2 50168  53.2179   5.5039 0001733 101.6704 258.4483 15.08848320147942,6917.855,95.437,540.919,538.521,0.0
50168.0,STARLINK-3296,PAYLOAD,2024-07-30 16:46:25,15.0885137,0.0002141,53.2173,4.3141,89.1297,270.994,0.00026136,3.875e-05,0.0,0 STARLINK-3296,1 50168U 21125N   24212.69890070  .00003875  00000-0  26136-3 0  9995,2 50168  53.2173   4.3141 0002141  89.1297 270.9940 15.08851370147988,6917.846,95.437,541.192,538.23,0.0
50168.0,STARLINK-3296,PAYLOAD,2024-07-31 15:01:48,15.08847137,0.0001277,53.217,0.1547,75.8847,284.2287,0.00016213,2.294e-05,0.0,0 STARLINK-3296,1 50168U 21125N   24213.62626053  .00002294  00000-0  16213-3 0  9996,2 50168  53.2170   0.1547 0001277  75.8847 284.2287 15.08847137148126,6917.859,95.437,540.607,538.84,0.0
50168.0,STARLINK-3296,PAYLOAD,2024-07-31 19:47:58,15.08846904,0.0001238,53.2172,359.257,92.6591,267.4542,0.00010026,1.308e-05,0.0,0 STARLINK-3296,1 50168U 21125N   24213.82497927  .00001308  00000-0  10026-3 0  9995,2 50168  53.2172 359.2570 0001238  92.6591 267.4542 15.08846904148153,6917.859,95.437,540.581,538.868,0.0
50168.0,STARLINK-3296,PAYLOAD,2024-08-01 10:06:26,15.08842856,0.0001355,53.2174,356.5805,89.8098,270.3049,0.00019636,2.839e-05,0.0,0 STARLINK-3296,1 50168U 21125N   24214.42114048  .00002839  00000-0  19636-3 0  9998,2 50168  53.2174 356.5805 0001355  89.8098 270.3049 15.08842856145150,6917.872,95.437,540.674,538.799,0.0
50168.0,STARLINK-3296,PAYLOAD,2024-08-01 19:38:44,15.08849654,0.0001251,53.2167,354.7966,67.553,292.5594,0.00017994,2.578e-05,0.0,0 STARLINK-3296,1 50168U 21125N   24214.81857593  .00002578  00000-0  17994-3 0  9995,2 50168  53.2167 354.7966 0001251  67.5530 292.5594 15.08849654148303,6917.851,95.437,540.581,538.85,0.0
50168.0,STARLINK-3296,PAYLOAD,2024-08-02 02:00:16,15.08864244,0.0001295,53.2197,353.6094,74.4651,285.6484,0.00038278,5.813e-05,0.0,0 STARLINK-3296,1 50168U 21125N   24215.08352662  .00005813  00000-0  38278-3 0  9995,2 50168  53.2197 353.6094 0001295  74.4651 285.6484 15.08864244145259,6917.806,95.436,540.567,538.775,0.0
50168.0,STARLINK-3296,PAYLOAD,2024-08-02 13:08:00,15.08817093,0.0001469,53.2183,351.5274,96.8539,263.262,-0.000378,-6.295e-05,0.0,0 STARLINK-3296,1 50168U 21125N   24215.54722868 -.00006295  00000-0 -37800-3 0  9992,2 50168  53.2183 351.5274 0001469  96.8539 263.2620 15.08817093145329,6917.95,95.439,540.832,538.799,0.0
50168.0,STARLINK-3296,PAYLOAD,2024-08-02 14:43:23,15.08819378,0.0001556,53.2189,351.231,98.163,261.9539,-0.00032036,-5.38e-05,0.0,0 STARLINK-3296,1 50168U 21125N   24215.61346888 -.00005380  00000-0 -32036-3 0  9994,2 50168  53.2189 351.2310 0001556  98.1630 261.9539 15.08819378148423,6917.943,95.439,540.885,538.732,0.0
50168.0,STARLINK-3296,PAYLOAD,2024-08-02 19:29:33,15.08829112,0.00014,53.218,350.339,92.7594,267.3558,-7.2551e-05,-1.442e-05,0.0,0 STARLINK-3296,1 50168U 21125N   24215.81218760 -.00001442  00000-0 -72551-4 0  9995,2 50168  53.2180 350.3390 0001400  92.7594 267.3558 15.08829112145367,6917.914,95.438,540.747,538.81,0.0
50168.0,STARLINK-3296,PAYLOAD,2024-08-03 14:34:11,15.08840701,0.0001465,53.2182,346.7717,96.2085,263.9074,0.00098558,0.00015433,0.0,0 STARLINK-3296,1 50168U 21125N   24216.60707360  .00015433  00000-0  98558-3 0  9999,2 50168  53.2182 346.7717 0001465  96.2085 263.9074 15.08840701148574,6917.878,95.438,540.757,538.73,0.0
50168.0,STARLINK-3296,PAYLOAD,2024-08-03 17:44:57,15.08852294,0.000146,53.2183,346.1776,93.5612,266.5548,0.0013644,0.000215,0.0,0 STARLINK-3296,1 50168U 21125N   24216.73955182  .00021500  00000-0  13644-2 0  9994,2 50168  53.2183 346.1776 0001460  93.5612 266.5548 15.08852294145500,6917.843,95.437,540.718,538.698,0.0
50168.0,STARLINK-3296,PAYLOAD,2024-08-04 01:41:52,15.08883231,0.0001368,53.2177,344.6884,89.7387,270.3762,0.0020306,0.00032215,0.0,0 STARLINK-3296,1 50168U 21125N   24217.07074398  .00032215  00000-0  20306-2 0  9991,2 50168  53.2177 344.6884 0001368  89.7387 270.3762 15.08883231145550,6917.748,95.435,540.56,538.667,0.0
50168.0,STARLINK-3296,PAYLOAD,2024-08-04 12:49:34,15.08853115,0.0001339,53.2179,342.609,77.0497,283.0645,0.0011803,0.00018553,0.0,0 STARLINK-3296,1 50168U 21125N   24217.53442702  .00018553  00000-0  11803-2 0  9991,2 50168  53.2179 342.6090 0001339  77.0497 283.0645 15.08853115145626,6917.84,95.437,540.632,538.779,0.0
50168.0,STARLINK-3296,PAYLOAD,2024-08-04 14:24:57,15.08853064,0.0001596,53.2177,342.3112,75.8819,284.2351,0.0012142,0.00019096,0.0,0 STARLINK-3296,1 50168U 21125N   24217.60066717  .00019096  00000-0  12142-2 0  9997,2 50168  53.2177 342.3112 0001596  75.8819 284.2351 15.08853064148729,6917.84,95.437,540.81,538.601,0.0
50168.0,STARLINK-3296,PAYLOAD,2024-08-04 17:35:43,15.08858111,0.0001487,53.2174,341.7166,68.5627,291.5524,0.0018503,0.00029297,0.0,0 STARLINK-3296,1 50168U 21125N   24217.73314548  .00029297  00000-0  18503-2 0  9990,2 50168  53.2174 341.7166 0001487  68.5627 291.5524 15.08858111148746,6917.825,95.436,540.719,538.661,0.0
50168.0,STARLINK-3296,PAYLOAD,2024-08-05 01:32:38,15.08894436,0.0001502,53.2172,340.2295,71.5711,288.5444,0.0027688,0.00044119,0.0,0 STARLINK-3296,1 50168U 21125N   24218.06433661  .00044119  00000-0  27688-2 0  9999,2 50168  53.2172 340.2295 0001502  71.5711 288.5444 15.08894436145707,6917.714,95.434,540.618,538.54,0.0
50168.0,STARLINK-3296,PAYLOAD,2024-08-05 12:40:21,15.08831787,0.0001558,53.2174,338.1481,100.6911,259.4256,0.001175,0.00018457,0.0,0 STARLINK-3296,1 50168U 21125N   24218.52802510  .00018457  00000-0  11750-2 0  9992,2 50168  53.2174 338.1481 0001558 100.6911 259.4256 15.08831787145774,6917.905,95.438,540.848,538.693,0.0
50168.0,STARLINK-3296,PAYLOAD,2024-08-05 14:15:44,15.08843087,0.0001348,53.2176,337.8499,89.6252,270.4895,0.0012232,0.00019234,0.0,0 STARLINK-3296,1 50168U 21125N   24218.59426297  .00019234  00000-0  12232-2 0  9993,2 50168  53.2176 337.8499 0001348  89.6252 270.4895 15.08843087148874,6917.871,95.437,540.668,538.803,0.0
50168.0,STARLINK-3296,PAYLOAD,2024-08-06 14:06:32,15.08822163,0.0001512,53.2169,333.39,104.9978,255.1182,0.0012874,0.0002025,0.0,0 STARLINK-3296,1 50168U 21125N   24219.58787420  .00020250  00000-0  12874-2 0  9993,2 50168  53.2169 333.3900 0001512 104.9978 255.1182 15.08822163145938,6917.935,95.439,540.846,538.754,0.0
50168.0,STARLINK-3296,PAYLOAD,2024-08-07 12:21:56,15.08858923,0.0001411,53.2171,329.2277,96.3494,263.7659,0.0014559,0.00022971,0.0,0 STARLINK-3296,1 50168U 21125N   24220.51523538  .00022971  00000-0  14559-2 0  9990,2 50168  53.2171 329.2277 0001411  96.3494 263.7659 15.08858923149163,6917.823,95.436,540.664,538.711,0.0
50168.0,STARLINK-3296,PAYLOAD,2024-08-08 13:48:05,15.08858556,0.0001248,53.2164,324.4674,106.6033,253.5096,0.00058602,9.056e-05,0.0,0 STARLINK-3296,1 50168U 21125N   24221.57506804  .00009056  00000-0  58602-3 0  9991,2 50168  53.2164 324.4674 0001248 106.6033 253.5096 15.08858556149327,6917.824,95.436,540.552,538.825,0.0
50168.0,STARLINK-3296,PAYLOAD,2024-08-09 13:38:53,15.08838833,0.0001395,53.217,320.0123,81.3336,278.7814,-0.00010202,-1.911e-05,0.0,0 STARLINK-3296,1 50168U 21125N   24222.56867043 -.00001911  00000-0 -10202-3 0  9994,2 50168  53.2170 320.0123 0001395  81.3336 278.7814 15.08838833146389,6917.884,95.438,540.714,538.784,0.0
50168.0,STARLINK-3296,PAYLOAD,2024-08-10 11:54:17,15.08835454,0.0001365,53.2173,315.8498,95.5475,264.5672,-3.5268e-06,-3.44e-06,0.0,0 STARLINK-3296,1 50168U 21125N   24223.49603548 -.00000344  00000-0 -35268-5 0  9995,2 50168  53.2173 315.8498 0001365  95.5475 264.5672 15.08835454149617,6917.894,95.438,540.704,538.815,0.0
50168.0,STARLINK-3296,PAYLOAD,2024-08-10 23:01:58,15.08854322,0.0001316,53.2177,313.7704,88.7041,271.4102,0.00028247,4.212e-05,0.0,0 STARLINK-3296,1 50168U 21125N   24223.95970642  .00004212  00000-0  28247-3 0  9991,2 50168  53.2177 313.7704 0001316  88.7041 271.4102 15.08854322146591,6917.837,95.437,540.612,538.791,0.0
50168.0,STARLINK-3296,PAYLOAD,2024-08-11 10:09:42,15.08822692,0.0001727,53.217,311.6867,87.7662,272.3528,-0.0001451,-2.596e-05,0.0,0 STARLINK-3296,1 50168U 21125N   24224.42340314 -.00002596  00000-0 -14510-3 0  9994,2 50168  53.2170 311.6867 0001727  87.7662 272.3528 15.08822692146660,6917.933,95.439,540.993,538.604,0.0
50168.0,STARLINK-3296,PAYLOAD,2024-08-11 14:55:50,15.08848632,0.0001555,53.2169,310.7944,93.2445,266.8726,0.00037448,5.678e-05,0.0,0 STARLINK-3296,1 50168U 21125N   24224.62211573  .00005678  00000-0  37448-3 0  9997,2 50168  53.2169 310.7944 0001555  93.2445 266.8726 15.08848632146697,6917.854,95.437,540.795,538.643,0.0
